{
  "links" : {
    "next" : "https://api.nasa.gov/neo/rest/v1/feed?start_date=2002-06-16&end_date=2002-06-16&detailed=true&api_key=t0TVs3DtDT2H8Oy2Zy8m2eVrNsAVKAexjcZXUckd",
    "prev" : "https://api.nasa.gov/neo/rest/v1/feed?start_date=2002-06-14&end_date=2002-06-14&detailed=true&api_key=t0TVs3DtDT2H8Oy2Zy8m2eVrNsAVKAexjcZXUckd",
    "self" : "https://api.nasa.gov/neo/rest/v1/feed?start_date=2002-06-15&end_date=2002-06-15&detailed=true&api_key=t0TVs3DtDT2H8Oy2Zy8m2eVrNsAVKAexjcZXUckd"
  },
  "element_count" : 4,
  "near_earth_objects" : {
    "2002-06-15" : [ {
      "links" : {
        "self" : "https://api.nasa.gov/neo/rest/v1/neo/3127403?api_key=t0TVs3DtDT2H8Oy2Zy8m2eVrNsAVKAexjcZXUckd"
      },
      "neo_reference_id" : "3127403",
      "name" : "(2002 LD31)",
      "nasa_jpl_url" : "http://ssd.jpl.nasa.gov/sbdb.cgi?sstr=3127403",
      "absolute_magnitude_h" : 21.2,
      "estimated_diameter" : {
        "kilometers" : {
          "estimated_diameter_min" : 0.1529519353,
          "estimated_diameter_max" : 0.3420109247
        },
        "meters" : {
          "estimated_diameter_min" : 152.9519353442,
          "estimated_diameter_max" : 342.0109247198
        },
        "miles" : {
          "estimated_diameter_min" : 0.095039897,
          "estimated_diameter_max" : 0.2125156703
        },
        "feet" : {
          "estimated_diameter_min" : 501.8108275547,
          "estimated_diameter_max" : 1122.0831222578
        }
      },
      "is_potentially_hazardous_asteroid" : false,
      "close_approach_data" : [ {
        "close_approach_date" : "2002-06-15",
        "epoch_date_close_approach" : 1024124400000,
        "relative_velocity" : {
          "kilometers_per_second" : "11.7887232694",
          "kilometers_per_hour" : "42439.4037699646",
          "miles_per_hour" : "26370.1950813983"
        },
        "miss_distance" : {
          "astronomical" : "0.136603768",
          "lunar" : "53.1388664246",
          "kilometers" : "20435634",
          "miles" : "12698114"
        },
        "orbiting_body" : "Earth"
      } ],
      "orbital_data" : {
        "orbit_id" : "11",
        "orbit_determination_date" : "2017-04-06 09:15:05",
        "orbit_uncertainty" : "7",
        "minimum_orbit_intersection" : ".0993396",
        "jupiter_tisserand_invariant" : "4.520",
        "epoch_osculation" : "2458000.5",
        "eccentricity" : ".2563130680013955",
        "semi_major_axis" : "1.464264012339682",
        "inclination" : "19.52001736855758",
        "ascending_node_longitude" : "82.6761089064215",
        "orbital_period" : "647.1836096497424",
        "perihelion_distance" : "1.088954010972865",
        "perihelion_argument" : "209.9434480920028",
        "aphelion_distance" : "1.8395740137065",
        "perihelion_time" : "2458289.710776325561",
        "mean_anomaly" : "199.1246658215747",
        "mean_motion" : ".5562563616140295",
        "equinox" : "J2000"
      }
    }, {
      "links" : {
        "self" : "https://api.nasa.gov/neo/rest/v1/neo/3600105?api_key=t0TVs3DtDT2H8Oy2Zy8m2eVrNsAVKAexjcZXUckd"
      },
      "neo_reference_id" : "3600105",
      "name" : "(2012 DH54)",
      "nasa_jpl_url" : "http://ssd.jpl.nasa.gov/sbdb.cgi?sstr=3600105",
      "absolute_magnitude_h" : 27.5,
      "estimated_diameter" : {
        "kilometers" : {
          "estimated_diameter_min" : 0.008405334,
          "estimated_diameter_max" : 0.0187948982
        },
        "meters" : {
          "estimated_diameter_min" : 8.4053340207,
          "estimated_diameter_max" : 18.7948982439
        },
        "miles" : {
          "estimated_diameter_min" : 0.0052228308,
          "estimated_diameter_max" : 0.0116786047
        },
        "feet" : {
          "estimated_diameter_min" : 27.5765560686,
          "estimated_diameter_max" : 61.6630539546
        }
      },
      "is_potentially_hazardous_asteroid" : false,
      "close_approach_data" : [ {
        "close_approach_date" : "2002-06-15",
        "epoch_date_close_approach" : 1024124400000,
        "relative_velocity" : {
          "kilometers_per_second" : "5.8270256847",
          "kilometers_per_hour" : "20977.292464927",
          "miles_per_hour" : "13034.4737541098"
        },
        "miss_distance" : {
          "astronomical" : "0.211563573",
          "lunar" : "82.2982330322",
          "kilometers" : "31649460",
          "miles" : "19666062"
        },
        "orbiting_body" : "Earth"
      } ],
      "orbital_data" : {
        "orbit_id" : "18",
        "orbit_determination_date" : "2017-04-06 08:50:43",
        "orbit_uncertainty" : "2",
        "minimum_orbit_intersection" : ".00878432",
        "jupiter_tisserand_invariant" : "6.396",
        "epoch_osculation" : "2458000.5",
        "eccentricity" : ".1462832700382355",
        "semi_major_axis" : ".9361880175999129",
        "inclination" : "3.308377785029591",
        "ascending_node_longitude" : "162.2779329926504",
        "orbital_period" : "330.859069656947",
        "perihelion_distance" : ".7992393730147844",
        "perihelion_argument" : "131.0280732386282",
        "aphelion_distance" : "1.073136662185041",
        "perihelion_time" : "2458081.863843267903",
        "mean_anomaly" : "271.4699089046712",
        "mean_motion" : "1.088076564965464",
        "equinox" : "J2000"
      }
    }, {
      "links" : {
        "self" : "https://api.nasa.gov/neo/rest/v1/neo/3686271?api_key=t0TVs3DtDT2H8Oy2Zy8m2eVrNsAVKAexjcZXUckd"
      },
      "neo_reference_id" : "3686271",
      "name" : "(2014 RP12)",
      "nasa_jpl_url" : "http://ssd.jpl.nasa.gov/sbdb.cgi?sstr=3686271",
      "absolute_magnitude_h" : 18.2,
      "estimated_diameter" : {
        "kilometers" : {
          "estimated_diameter_min" : 0.6089126221,
          "estimated_diameter_max" : 1.3615700154
        },
        "meters" : {
          "estimated_diameter_min" : 608.9126221057,
          "estimated_diameter_max" : 1361.5700153859
        },
        "miles" : {
          "estimated_diameter_min" : 0.3783606449,
          "estimated_diameter_max" : 0.846040122
        },
        "feet" : {
          "estimated_diameter_min" : 1997.7448871092,
          "estimated_diameter_max" : 4467.0933692788
        }
      },
      "is_potentially_hazardous_asteroid" : false,
      "close_approach_data" : [ {
        "close_approach_date" : "2002-06-15",
        "epoch_date_close_approach" : 1024124400000,
        "relative_velocity" : {
          "kilometers_per_second" : "29.874592351",
          "kilometers_per_hour" : "107548.5324637138",
          "miles_per_hour" : "66826.4756300226"
        },
        "miss_distance" : {
          "astronomical" : "0.4640636725",
          "lunar" : "180.5207672119",
          "kilometers" : "69422936",
          "miles" : "43137412"
        },
        "orbiting_body" : "Earth"
      } ],
      "orbital_data" : {
        "orbit_id" : "22",
        "orbit_determination_date" : "2016-08-15 06:15:58",
        "orbit_uncertainty" : "2",
        "minimum_orbit_intersection" : ".0942041",
        "jupiter_tisserand_invariant" : "5.747",
        "epoch_osculation" : "2457600.5",
        "eccentricity" : ".486447910063022",
        "semi_major_axis" : "1.036635827717492",
        "inclination" : "21.0926904911111",
        "ascending_node_longitude" : "38.82120133523182",
        "orbital_period" : "385.5118648642459",
        "perihelion_distance" : ".532366495827867",
        "perihelion_argument" : "96.46924003101385",
        "aphelion_distance" : "1.540905159607116",
        "perihelion_time" : "2457788.847583585207",
        "mean_anomaly" : "184.1166193041774",
        "mean_motion" : ".9338233989938813",
        "equinox" : "J2000"
      }
    }, {
      "links" : {
        "self" : "https://api.nasa.gov/neo/rest/v1/neo/2472263?api_key=t0TVs3DtDT2H8Oy2Zy8m2eVrNsAVKAexjcZXUckd"
      },
      "neo_reference_id" : "2472263",
      "name" : "472263 (2014 RP12)",
      "nasa_jpl_url" : "http://ssd.jpl.nasa.gov/sbdb.cgi?sstr=2472263",
      "absolute_magnitude_h" : 18.2,
      "estimated_diameter" : {
        "kilometers" : {
          "estimated_diameter_min" : 0.6089126221,
          "estimated_diameter_max" : 1.3615700154
        },
        "meters" : {
          "estimated_diameter_min" : 608.9126221057,
          "estimated_diameter_max" : 1361.5700153859
        },
        "miles" : {
          "estimated_diameter_min" : 0.3783606449,
          "estimated_diameter_max" : 0.846040122
        },
        "feet" : {
          "estimated_diameter_min" : 1997.7448871092,
          "estimated_diameter_max" : 4467.0933692788
        }
      },
      "is_potentially_hazardous_asteroid" : false,
      "close_approach_data" : [ {
        "close_approach_date" : "2002-06-15",
        "epoch_date_close_approach" : 1024124400000,
        "relative_velocity" : {
          "kilometers_per_second" : "29.8745008937",
          "kilometers_per_hour" : "107548.2032172372",
          "miles_per_hour" : "66826.2710490661"
        },
        "miss_distance" : {
          "astronomical" : "0.4640606872",
          "lunar" : "180.5196075439",
          "kilometers" : "69422496",
          "miles" : "43137136"
        },
        "orbiting_body" : "Earth"
      } ],
      "orbital_data" : {
        "orbit_id" : "24",
        "orbit_determination_date" : "2017-04-06 09:19:10",
        "orbit_uncertainty" : "2",
        "minimum_orbit_intersection" : ".0934943",
        "jupiter_tisserand_invariant" : "5.748",
        "epoch_osculation" : "2458000.5",
        "eccentricity" : ".4863991752591296",
        "semi_major_axis" : "1.036508249249314",
        "inclination" : "21.09093450411412",
        "ascending_node_longitude" : "38.81547097183658",
        "orbital_period" : "385.4406998052114",
        "perihelion_distance" : ".5323514916651633",
        "perihelion_argument" : "96.47653025241014",
        "aphelion_distance" : "1.540665006833465",
        "perihelion_time" : "2458174.283856922387",
        "mean_anomaly" : "197.6866051673418",
        "mean_motion" : ".9339958135763341",
        "equinox" : "J2000"
      }
    } ]
  }
}